1 42037U 17008CT  21325.42358022  .00008051  00000-0  25739-3 0  9994
2 42037  97.3082  32.9820 0004699 251.4813 108.5919 15.32690460265364
1 42037U 17008CT  21326.14173524  .00009108  00000-0  29070-3 0  9992
2 42037  97.3079  33.6912 0004729 248.1726 111.9014 15.32703083265472
1 42037U 17008CT  21326.46816722  .00007860  00000-0  25120-3 0  9996
2 42037  97.3078  34.0136 0004744 246.5488 113.5256 15.32706751265525
1 42037U 17008CT  21327.44745697  .00007121  00000-0  22772-3 0  9997
2 42037  97.3075  34.9805 0004803 242.2115 117.8640 15.32721936265672
1 42037U 17008CT  21328.42673757  .00007132  00000-0  22799-3 0  9994
2 42037  97.3074  35.9475 0004833 237.5717 122.5058 15.32736705265826
1 42037U 17008CT  21329.14487064  .00007020  00000-0  22436-3 0  9992
2 42037  97.3073  36.6567 0004871 234.1611 125.9179 15.32747300265939
1 42037U 17008CT  21330.18941730  .00007318  00000-0  23364-3 0  9994
2 42037  97.3070  37.6882 0004950 229.6484 130.4327 15.32765273266095
1 42037U 17008CT  21330.90753653  .00007545  00000-0  24072-3 0  9998
2 42037  97.3071  38.3973 0004989 226.5257 133.5571 15.32777243266209
1 42037U 17008CT  21331.42980237  .00007456  00000-0  23786-3 0  9998
2 42037  97.3073  38.9131 0005015 224.2099 135.8743 15.32784885266287
1 42037U 17008CT  21331.56036846  .00008256  00000-0  26307-3 0  9992
2 42037  97.3074  39.0420 0005051 223.9197 136.1644 15.32787854266302
1 42037U 17008CT  21331.62565141  .00008442  00000-0  26890-3 0  9998
2 42037  97.3074  39.1065 0005051 223.6349 136.4494 15.32789166266319
1 42037U 17008CT  21332.47432431  .00010491  00000-0  33332-3 0  9993
2 42037  97.3075  39.9447 0005107 220.0254 140.0612 15.32806296266441
1 42037U 17008CT  21333.45354965  .00012015  00000-0  38105-3 0  9994
2 42037  97.3078  40.9120 0005190 216.2201 143.8691 15.32829023266592
1 42037U 17008CT  21334.17163924  .00010328  00000-0  32780-3 0  9995
2 42037  97.3076  41.6212 0005238 213.4290 146.6623 15.32842999266706
1 42037U 17008CT  21334.49804107  .00010295  00000-0  32670-3 0  9996
2 42037  97.3079  41.9437 0005260 211.8737 148.2188 15.32850352266755
1 42037U 17008CT  21335.41195932  .00014246  00000-0  45059-3 0  9993
2 42037  97.3080  42.8465 0005337 208.5177 151.5775 15.32873261266892
1 42037U 17008CT  21335.73835577  .00011885  00000-0  37639-3 0  9995
2 42037  97.3080  43.1690 0005376 207.3439 152.7521 15.32877994266942
1 42037U 17008CT  21336.45642087  .00012355  00000-0  39091-3 0  9994
2 42037  97.3079  43.8784 0005430 204.4761 155.6224 15.32896765267050
1 42037U 17008CT  21336.91336697  .00010453  00000-0  33109-3 0  9993
2 42037  97.3078  44.3299 0005479 202.6628 157.4374 15.32906698267122
1 42037U 17008CT  21337.43558765  .00009209  00000-0  29192-3 0  9997
2 42037  97.3077  44.8458 0005522 200.6390 159.4630 15.32916835267206
1 42037U 17008CT  21338.15363502  .00011683  00000-0  36937-3 0  9994
2 42037  97.3074  45.5550 0005584 197.8180 162.2867 15.32935428267311
1 42037U 17008CT  21338.74112283  .00010625  00000-0  33605-3 0  9991
2 42037  97.3071  46.1353 0005643 195.5728 164.5342 15.32946725267400
1 42037U 17008CT  21339.45915799  .00008409  00000-0  26645-3 0  9996
2 42037  97.3066  46.8445 0005692 192.8454 167.2645 15.32958023267515
1 42037U 17008CT  21339.91608654  .00008653  00000-0  27401-3 0  9998
2 42037  97.3064  47.2958 0005737 191.4830 168.6283 15.32966203267589
1 42037U 17008CT  21340.43828766  .00008583  00000-0  27175-3 0  9995
2 42037  97.3063  47.8115 0005781 189.6529 170.4604 15.32975290267665
1 42037U 17008CT  21340.76466274  .00007179  00000-0  22771-3 0  9990
2 42037  97.3062  48.1339 0005811 188.4357 171.6789 15.32977776267710
1 42037U 17008CT  21341.15631053  .00008179  00000-0  25899-3 0  9998
2 42037  97.3060  48.5207 0005846 187.0558 173.0603 15.32985675267776
1 42037U 17008CT  21342.13542449  .00006269  00000-0  19905-3 0  9996
2 42037  97.3057  49.4877 0005948 183.6842 176.4358 15.32997234267921
1 42037U 17008CT  21342.91870992  .00005469  00000-0  17391-3 0  9997
2 42037  97.3056  50.2613 0006021 181.0754 179.0476 15.33006353268043
1 42037U 17008CT  21343.17980400  .00005481  00000-0  17426-3 0  9995
2 42037  97.3057  50.5192 0006044 180.2510 179.8730 15.33009869268085
1 42037U 17008CT  21343.63671788  .00005282  00000-0  16799-3 0  9993
2 42037  97.3056  50.9705 0006097 178.5822 181.5438 15.33014518268152
1 42037U 17008CT  21344.41999620  .00004955  00000-0  15773-3 0  9995
2 42037  97.3057  51.7441 0006175 175.7154 184.4142 15.33021165268276
1 42037U 17008CT  21345.46436096  .00005372  00000-0  17073-3 0  9993
2 42037  97.3059  52.7758 0006277 172.3934 187.7404 15.33031891268434
1 42037U 17008CT  21345.92126826  .00004361  00000-0  13906-3 0  9999
2 42037  97.3059  53.2270 0006325 171.0190 189.1167 15.33034548268505
1 42037U 17008CT  21346.44344601  .00005557  00000-0  17647-3 0  9994
2 42037  97.3060  53.7429 0006369 169.1860 190.9521 15.33042625268585
1 42037U 17008CT  21346.63926217  .00005477  00000-0  17394-3 0  9994
2 42037  97.3061  53.9363 0006382 168.5918 191.5470 15.33044593268617
1 42037U 17008CT  21347.42252383  .00005448  00000-0  17298-3 0  9999
2 42037  97.3063  54.7100 0006449 165.8100 194.3324 15.33053325268739
1 42037U 17008CT  21347.61833800  .00006727  00000-0  21296-3 0  9993
2 42037  97.3063  54.9035 0006466 165.1453 194.9980 15.33058578268763
1 42037U 17008CT  21348.14050920  .00005632  00000-0  17869-3 0  9991
2 42037  97.3063  55.4194 0006527 163.4404 196.7053 15.33062477268843
1 42037U 17008CT  21348.46686492  .00006223  00000-0  19714-3 0  9993
2 42037  97.3063  55.7418 0006552 162.4168 197.7303 15.33067220268894
1 42037U 17008CT  21348.66267777  .00006736  00000-0  21317-3 0  9997
2 42037  97.3063  55.9353 0006573 161.8439 198.3039 15.33070773268925
1 42037U 17008CT  21349.18484362  .00006611  00000-0  20922-3 0  9999
2 42037  97.3063  56.4512 0006625 160.1820 199.9681 15.33077633269004
1 42037U 17008CT  21349.70700668  .00008017  00000-0  25307-3 0  9991
2 42037  97.3062  56.9671 0006671 158.4342 201.7183 15.33087782269087
1 42037U 17008CT  21350.42497483  .00009282  00000-0  29243-3 0  9998
2 42037  97.3062  57.6765 0006728 155.9648 204.1910 15.33102092269192
1 42037U 17008CT  21350.75132165  .00010475  00000-0  32958-3 0  9990
2 42037  97.3062  57.9989 0006750 154.8672 205.2900 15.33110490269241
1 42037U 17008CT  21351.73035230  .00010511  00000-0  33047-3 0  9995
2 42037  97.3059  58.9661 0006839 151.7982 208.3632 15.33132142269393
1 42037U 17008CT  21352.12196022  .00010633  00000-0  33416-3 0  9991
2 42037  97.3058  59.3530 0006859 150.4691 209.6940 15.33142106269451
1 42037U 17008CT  21352.18722801  .00010553  00000-0  33167-3 0  9991
2 42037  97.3058  59.4175 0006862 150.2536 209.9097 15.33143609269463
1 42037U 17008CT  21352.70936829  .00011930  00000-0  37440-3 0  9994
2 42037  97.3055  59.9334 0006901 148.5671 211.5985 15.33156755269546
1 42037U 17008CT  21353.42730320  .00013237  00000-0  41485-3 0  9998
2 42037  97.3052  60.6426 0006954 146.3035 213.8651 15.33175771269658
1 42037U 17008CT  21353.68836852  .00013502  00000-0  42299-3 0  9992
2 42037  97.3051  60.9005 0006961 145.4155 214.7541 15.33182808269695
1 42037U 17008CT  21354.14522743  .00021484  00000-0  67044-3 0  9998
2 42037  97.3050  61.3520 0006990 144.1138 216.0575 15.33207280269762
1 42037U 17008CT  21354.73260943  .00020993  00000-0  65472-3 0  9991
2 42037  97.3047  61.9322 0007038 142.2398 217.9340 15.33229767269859
1 42037U 17008CT  21355.45050727  .00020661  00000-0  64382-3 0  9999
2 42037  97.3042  62.6412 0007055 139.9079 220.2685 15.33260194269960
1 42037U 17008CT  21355.71155786  .00018077  00000-0  56364-3 0  9998
2 42037  97.3043  62.8993 0007055 139.0712 221.1061 15.33268363270003
1 42037U 17008CT  21356.49469822  .00018635  00000-0  58033-3 0  9998
2 42037  97.3040  63.6726 0007110 136.9487 223.2313 15.33300569270121
1 42037U 17008CT  21356.75574111  .00021416  00000-0  66604-3 0  9999
2 42037  97.3039  63.9304 0007119 136.1273 224.0536 15.33314615270165
1 42037U 17008CT  21357.40834038  .00021142  00000-0  65702-3 0  9993
2 42037  97.3037  64.5749 0007145 133.8970 226.2863 15.33342234270266
1 42037U 17008CT  21357.73463622  .00019132  00000-0  59471-3 0  9998
2 42037  97.3038  64.8975 0007160 132.9004 227.2840 15.33353759270312
1 42037U 17008CT  21358.45247584  .00018960  00000-0  58885-3 0  9991
2 42037  97.3037  65.6067 0007164 130.5871 229.5996 15.33382854270429
1 42037U 17008CT  21358.71350588  .00018638  00000-0  57877-3 0  9991
2 42037  97.3036  65.8647 0007159 129.7068 230.4806 15.33391894270465
1 42037U 17008CT  21359.49658588  .00018254  00000-0  56643-3 0  9992
2 42037  97.3036  66.6387 0007190 127.3609 232.8289 15.33419021270582
1 42037U 17008CT  21359.75760945  .00019328  00000-0  59932-3 0  9999
2 42037  97.3036  66.8966 0007198 126.5402 233.6505 15.33429699270624
1 42037U 17008CT  21360.14914127  .00019383  00000-0  60072-3 0  9995
2 42037  97.3037  67.2835 0007228 125.3193 234.8726 15.33444768270681
1 42037U 17008CT  21360.73643214  .00017155  00000-0  53177-3 0  9999
2 42037  97.3037  67.8638 0007246 123.5469 236.6466 15.33464303270772
1 42037U 17008CT  21361.19320791  .00017719  00000-0  54883-3 0  9993
2 42037  97.3038  68.3153 0007272 122.1197 238.0753 15.33482510270846
1 42037U 17008CT  21361.71523169  .00017881  00000-0  55348-3 0  9992
2 42037  97.3039  68.8312 0007297 120.5239 239.6725 15.33501482270920
1 42037U 17008CT  21362.17199670  .00020684  00000-0  63921-3 0  9990
2 42037  97.3039  69.2825 0007337 119.2185 240.9792 15.33521917270995
1 42037U 17008CT  21362.62875660  .00020624  00000-0  63706-3 0  9995
2 42037  97.3040  69.7341 0007318 117.7221 242.4765 15.33538856271064
1 42037U 17008CT  21363.41176204  .00017273  00000-0  53371-3 0  9994
2 42037  97.3041  70.5081 0007371 115.5377 244.6629 15.33564008271187
1 42037U 17008CT  21363.67276099  .00017043  00000-0  52652-3 0  9991
2 42037  97.3042  70.7661 0007362 114.7611 245.4399 15.33572941271229
